OBJECT_NAME,OBJECT_ID,EPOCH,MEAN_MOTION,ECCENTRICITY,INCLINATION,RA_OF_ASC_NODE,ARG_OF_PERICENTER,MEAN_ANOMALY,EPHEMERIS_TYPE,CLASSIFICATION_TYPE,NORAD_CAT_ID,ELEMENT_SET_NO,REV_AT_EPOCH,BSTAR,MEAN_MOTION_DOT,MEAN_MOTION_DDOT
OCEANSAT-2,2009-051A,2026-06-29T11:52:58.971072,13.99660363,.0016207,98.2319,166.1183,199.3431,160.7122,0,U,35931,999,88105,-.13669E-3,-.238E-5,0
WORLDVIEW-2 (WV-2),2009-055A,2026-06-29T11:31:56.787168,14.37902795,.0004495,98.4765,253.7616,170.3058,189.8216,0,U,35946,999,87741,.53352E-4,.117E-5,0
SMOS,2009-059A,2026-06-29T11:45:55.528992,14.39779000,.000131,98.4424,7.6449,87.9905,272.1433,0,U,36036,999,87522,.91321E-4,.243E-5,0
YAOGAN-7,2009-069A,2026-06-29T13:05:25.224576,14.78021797,.0024676,98.0057,66.3354,2.8805,357.2543,0,U,36110,999,89145,.75184E-4,.492E-5,0
TANDEM-X,2010-030A,2026-06-29T12:13:05.657664,15.19149373,.0001729,97.4454,188.0398,96.6847,263.4585,0,U,36605,999,88851,.18141E-4,.314E-5,0
CARTOSAT-2B,2010-035A,2026-06-29T12:29:05.713728,14.78678984,.0012204,97.9952,230.9916,144.6790,215.5232,0,U,36795,999,86167,.17328E-3,.1219E-4,0
YAOGAN-10,2010-038A,2026-06-29T13:27:54.974016,14.85384105,.0001641,97.8971,203.8663,84.0901,67.2428,0,U,36834,999,85904,.14511E-3,.1195E-4,0
COSMO-SKYMED 4,2010-060A,2026-06-29T12:40:31.163808,14.82154147,.0001426,97.8882,3.9489,86.1870,273.9506,0,U,37216,999,84639,.49509E-4,.342E-5,0
RESOURCESAT-2,2011-015A,2026-06-29T11:26:00.553056,14.21602708,.0010676,98.7640,247.8331,216.9012,143.1431,0,U,37387,999,78792,.63139E-4,.94E-6,0
HAIYANG-2A,2011-043A,2026-06-29T13:28:13.131840,13.74025254,.0004936,99.3390,182.9598,65.7418,294.4246,0,U,37781,999,74835,.43299E-4,-.3E-7,0
RASAT,2011-044D,2026-06-29T12:36:42.996096,14.68178713,.0021122,98.0585,271.7342,149.7981,337.0987,0,U,37791,999,79499,.13496E-3,.73E-5,0
SRMSAT,2011-058D,2026-06-29T12:23:25.174176,14.11578051,.0011761,19.9735,344.8461,340.0688,58.9057,0,U,37841,999,75956,.62534E-4,.38E-5,0
PLEIADES 1A,2011-076F,2026-06-29T11:30:24.598368,14.58539109,.0001781,98.1981,255.4173,87.7893,2.4071,0,U,38012,999,77378,.12746E-3,.547E-5,0
ZIYUAN 1-02C (ZY 1-02C),2011-079A,2026-06-29T12:54:22.330080,14.38225003,.0005115,98.4075,247.5881,272.1727,196.4915,0,U,38038,999,76098,.20798E-3,.589E-5,0
ARIRANG-3 (KOMPSAT-3),2012-025B,2026-06-29T11:41:19.886208,14.62216700,.0006795,98.1176,137.7350,78.6564,281.5401,0,U,38338,999,75314,.95894E-4,.437E-5,0
EXACTVIEW-1 (ADS-1B),2012-039C,2026-06-29T07:37:46.146144,14.24988060,.0011704,98.9790,297.9827,133.2339,226.9818,0,U,38709,999,72443,.69002E-4,.115E-5,0
SPOT 6,2012-047A,2026-06-29T11:27:42.626016,14.58529966,.0001299,98.2122,247.6428,75.5309,284.6035,0,U,38755,999,73484,.97604E-4,.408E-5,0
PLEIADES 1B,2012-068A,2026-06-29T11:54:46.113120,14.58568143,.0001728,98.1951,255.3786,84.8787,275.2609,0,U,39019,999,72264,.98849E-4,.414E-5,0
GOKTURK 2,2012-073A,2026-06-29T13:24:00.819648,14.75553507,.000112,97.6813,17.3695,59.9154,300.2167,0,U,39030,999,72633,.18964E-4,.82E-6,0
LANDSAT 8,2013-008A,2026-06-29T10:53:48.359616,14.57102415,.0001346,98.2299,250.4434,93.6916,266.4436,0,U,39084,999,69968,.83019E-4,.329E-5,0
SARAL,2013-009A,2026-06-29T12:58:27.325056,14.32858835,.0000837,98.5556,6.9513,214.8860,145.2269,0,U,39086,999,69737,.44795E-4,.78E-6,0
GAOFEN-1,2013-018A,2026-06-29T12:46:15.715776,14.76549743,.0016018,97.9098,252.3495,223.1804,136.8151,0,U,39150,999,71006,.73158E-4,.46E-5,0
VNREDSAT 1,2013-021B,2026-06-29T12:30:01.809792,14.64869988,.0001734,97.9079,233.4639,82.5936,277.5465,0,U,39160,999,70209,.15641E-3,.79E-5,0
ARIRANG-5 (KOMPSAT-5),2013-042A,2026-06-29T12:52:54.227136,15.04524505,.0005072,97.6189,7.0622,93.6380,266.5426,0,U,39227,999,70571,.14332E-3,.1947E-4,0
SKYSAT-A,2013-066C,2026-06-28T16:46:16.773600,15.13033516,.00196511,97.3809,228.7291,274.4868,85.4118,0,U,39418,999,69022,.15456208E-3,.2678E-4,0
DUBAISAT-2,2013-066D,2026-06-29T12:39:05.705568,15.10270553,.0011014,97.4554,170.3489,0.2047,359.9185,0,U,39419,999,68825,.30224E-3,.4891E-4,0
GPM-CORE,2014-009C,2026-06-29T12:15:10.687968,15.44824096,.0011348,64.9721,266.8474,256.5935,103.3941,0,U,39574,999,69971,.20434E-3,.9407E-4,0
SENTINEL-1A,2014-016A,2026-06-29T12:06:39.845376,14.59199697,.000138,98.1774,187.8575,83.0357,277.0999,0,U,39634,999,65181,.71018E-4,.289E-5,0
KAZEOSAT 1,2014-024A,2026-06-29T12:15:42.326784,14.42085697,.0001218,98.3210,252.6520,75.9918,284.1407,0,U,39731,999,64033,.15685E-3,.473E-5,0
ALOS-2,2014-029A,2026-06-29T12:23:01.027104,14.79474787,.0001642,97.9230,277.5031,89.7797,270.3603,0,U,39766,999,65340,.23528E-3,.1706E-4,0
KAZEOSAT 2,2014-033A,2026-06-29T13:21:58.179168,14.85481738,.0007118,97.5398,19.5151,282.1851,77.8568,0,U,40010,999,65079,.23756E-4,.155E-5,0
