OCEANSAT-2              
1 35931U 09051A   26180.49512698 -.00000238  00000+0 -13669-3 0  9999
2 35931  98.2319 166.1183 0016207 199.3431 160.7122 13.99660363881054
WORLDVIEW-2 (WV-2)      
1 35946U 09055A   26180.48051837  .00000117  00000+0  53352-4 0  9999
2 35946  98.4765 253.7616 0004495 170.3058 189.8216 14.37902795877413
SMOS                    
1 36036U 09059A   26180.49022603  .00000243  00000+0  91321-4 0  9992
2 36036  98.4424   7.6449 0001310  87.9905 272.1433 14.39779000875220
YAOGAN-7                
1 36110U 09069A   26180.54543084  .00000492  00000+0  75184-4 0  9998
2 36110  98.0057  66.3354 0024676   2.8805 357.2543 14.78021797891459
TANDEM-X                
1 36605U 10030A   26180.50909326  .00000314  00000+0  18141-4 0  9991
2 36605  97.4454 188.0398 0001729  96.6847 263.4585 15.19149373888517
CARTOSAT-2B             
1 36795U 10035A   26180.52020502  .00001219  00000+0  17328-3 0  9998
2 36795  97.9952 230.9916 0012204 144.6790 215.5232 14.78678984861673
YAOGAN-10               
1 36834U 10038A   26180.56105294  .00001195  00000+0  14511-3 0  9995
2 36834  97.8971 203.8663 0001641  84.0901  67.2428 14.85384105859043
COSMO-SKYMED 4          
1 37216U 10060A   26180.52813847  .00000342  00000+0  49509-4 0  9990
2 37216  97.8882   3.9489 0001426  86.1870 273.9506 14.82154147846398
RESOURCESAT-2           
1 37387U 11015A   26180.47639529  .00000094  00000+0  63139-4 0  9996
2 37387  98.7640 247.8331 0010676 216.9012 143.1431 14.21602708787924
HAIYANG-2A              
1 37781U 11043A   26180.56126310 -.00000003  00000+0  43299-4 0  9990
2 37781  99.3390 182.9598 0004936  65.7418 294.4246 13.74025254748357
RASAT                   
1 37791U 11044D   26180.52549764  .00000730  00000+0  13496-3 0  9991
2 37791  98.0585 271.7342 0021122 149.7981 337.0987 14.68178713794998
SRMSAT                  
1 37841U 11058D   26180.51626359  .00000380  00000+0  62534-4 0  9996
2 37841  19.9735 344.8461 0011761 340.0688  58.9057 14.11578051759563
PLEIADES 1A             
1 38012U 11076F   26180.47945137  .00000547  00000+0  12746-3 0  9994
2 38012  98.1981 255.4173 0001781  87.7893   2.4071 14.58539109773789
ZIYUAN 1-02C (ZY 1-02C) 
1 38038U 11079A   26180.53775845  .00000589  00000+0  20798-3 0  9991
2 38038  98.4075 247.5881 0005115 272.1727 196.4915 14.38225003760985
ARIRANG-3 (KOMPSAT-3)   
1 38338U 12025B   26180.48703572  .00000437  00000+0  95894-4 0  9990
2 38338  98.1176 137.7350 0006795  78.6564 281.5401 14.62216700753148
EXACTVIEW-1 (ADS-1B)    
1 38709U 12039C   26180.31789521  .00000115  00000+0  69002-4 0  9992
2 38709  98.9790 297.9827 0011704 133.2339 226.9818 14.24988060724430
SPOT 6                  
1 38755U 12047A   26180.47757669  .00000408  00000+0  97604-4 0  9991
2 38755  98.2122 247.6428 0001299  75.5309 284.6035 14.58529966734846
PLEIADES 1B             
1 39019U 12068A   26180.49636705  .00000414  00000+0  98849-4 0  9996
2 39019  98.1951 255.3786 0001728  84.8787 275.2609 14.58568143722640
GOKTURK 2               
1 39030U 12073A   26180.55834282  .00000082  00000+0  18964-4 0  9993
2 39030  97.6813  17.3695 0001120  59.9154 300.2167 14.75553507726331
LANDSAT 8               
1 39084U 13008A   26180.45403194  .00000329  00000+0  83019-4 0  9991
2 39084  98.2299 250.4434 0001346  93.6916 266.4436 14.57102415699684
SARAL                   
1 39086U 13009A   26180.54059404  .00000078  00000+0  44795-4 0  9994
2 39086  98.5556   6.9513 0000837 214.8860 145.2269 14.32858835697375
GAOFEN-1                
1 39150U 13018A   26180.53212634  .00000460  00000+0  73158-4 0  9991
2 39150  97.9098 252.3495 0016018 223.1804 136.8151 14.76549743710067
VNREDSAT 1              
1 39160U 13021B   26180.52085428  .00000790  00000+0  15641-3 0  9992
2 39160  97.9079 233.4639 0001734  82.5936 277.5465 14.64869988702097
ARIRANG-5 (KOMPSAT-5)   
1 39227U 13042A   26180.53673874  .00001947  00000+0  14332-3 0  9999
2 39227  97.6189   7.0622 0005072  93.6380 266.5426 15.04524505705717
SKYSAT-A                
1 39418U 13066C   26179.69880525  .00002678  00000+0  15456-3 0  9995
2 39418  97.3809 228.7291 0019651 274.4868  85.4118 15.13033516690229
DUBAISAT-2              
1 39419U 13066D   26180.52714937  .00004891  00000+0  30224-3 0  9992
2 39419  97.4554 170.3489 0011014   0.2047 359.9185 15.10270553688252
GPM-CORE                
1 39574U 14009C   26180.51054037  .00009407  00000+0  20434-3 0  9999
2 39574  64.9721 266.8474 0011348 256.5935 103.3941 15.44824096699714
SENTINEL-1A             
1 39634U 14016A   26180.50462784  .00000289  00000+0  71018-4 0  9999
2 39634  98.1774 187.8575 0001380  83.0357 277.0999 14.59199697651816
KAZEOSAT 1              
1 39731U 14024A   26180.51090656  .00000473  00000+0  15685-3 0  9994
2 39731  98.3210 252.6520 0001218  75.9918 284.1407 14.42085697640339
ALOS-2                  
1 39766U 14029A   26180.51598411  .00001706  00000+0  23528-3 0  9994
2 39766  97.9230 277.5031 0001642  89.7797 270.3603 14.79474787653405
KAZEOSAT 2              
1 40010U 14033A   26180.55692337  .00000155  00000+0  23756-4 0  9990
2 40010  97.5398  19.5151 0007118 282.1851  77.8568 14.85481738650791
